FALCON 9 DEB            
1 53513U 22099BA  22241.56805260  .00187433  15246-4  57993-3 0  9996
2 53513  97.6733   0.7811 0010481 200.9773 159.1071 15.91616686  2659
FALCON 9 DEB            
1 53514U 22099BB  22241.56510430  .00181370  14452-4  55490-3 0  9991
2 53514  97.6717   0.7820 0009768 185.2922 174.8249 15.91850773  2657
2022-100A               
1 53522U 22100A   22241.41702499  .00005861  00000+0  24591-3 0  9992
2 53522  35.0009 146.8483 0007815 344.4141  15.6339 15.22802582  1487
2022-100B               
1 53523U 22100B   22241.34862676  .00009645  00000+0  39544-3 0  9997
2 53523  35.0016 147.2367 0008381 347.4307  12.6199 15.23473865  1477
2022-100C               
1 53524U 22100C   22241.24253146  .00006942  00000+0  29070-3 0  9993
2 53524  35.0013 147.9019 0005955 342.1977 156.9686 15.22840110  1401
2022-100D               
1 53525U 22100D   22241.41209924  .00008205  00000+0  33343-3 0  9990
2 53525  35.0029 146.8111 0008551 356.2917   3.7748 15.23799574  1434
2022-100E               
1 53526U 22100E   22241.41559627  .00003778  00000+0  15953-3 0  9996
2 53526  35.0029 146.8399 0005799 351.9933   8.0683 15.22727669  1435
STARLINK-4511           
1 53527U 22101A   22241.58334491 -.01196304  00000+0 -82878-2 0  9996
2 53527  53.2176 106.2989 0003241   4.2877 161.1514 15.76555957  1309
